PATHFINDER 1            
1 41787U 16059E   22080.86624282  .00000226  00000+0  51608-4 0  9991
2 41787  97.9243 128.0790 0031651  83.6041 276.8751 14.63929875292922
CANX-7                  
1 41788U 16059F   22080.35614150  .00209746  00000+0  10202-1 0  9999
2 41788  98.2212 204.3554 0013508 310.2310 114.4079 15.17351327295225
SCATSAT 1               
1 41790U 16059H   22080.88719429  .00000097  00000+0  35734-4 0  9993
2 41790  98.3323 125.7341 0006346 108.7082 251.4802 14.50847912290373
GSAT-18                 
1 41793U 16060A   22080.86064861 -.00000078  00000+0  00000+0 0  9992
2 41793   0.0394 111.9642 0001513 284.0545 167.1654  1.00270928 20016
SKY MUSTER 2 (NBN1B)    
1 41794U 16060B   22080.39696083 -.00000245  00000+0  00000+0 0  9994
2 41794   0.0128 232.8773 0001535 132.2370 101.4720  1.00271920 19997
HIMAWARI-9              
1 41836U 16064A   22080.77331295 -.00000276  00000+0  00000+0 0  9992
2 41836   0.0103 182.4758 0000903 220.2367 195.7049  1.00273031 19661
SHIJIAN-17 (SJ-17)      
1 41838U 16065A   22080.92466876 -.00000363  00000+0  00000+0 0  9993
2 41838   1.8074  90.4175 0001471 356.4329 182.9815  1.00270962 19682
XPNAV-1                 
1 41841U 16066A   22080.98020843  .00002907  00000+0  12125-3 0  9994
2 41841  97.4124  89.7605 0012657 245.7138 144.4554 15.24423339297903
XIAOXIANG 1             
1 41842U 16066B   22080.95471396  .00004959  00000+0  19222-3 0  9999
2 41842  97.4020  91.8969 0011885 239.1405 184.4108 15.26540122298106
PINA 2A                 
1 41843U 16066C   22080.94700183  .00014716  00000+0  39325-3 0  9996
2 41843  97.4058  94.2567 0050431 265.0104 159.3717 15.36870582298231
PINA 2B                 
1 41844U 16066D   22080.93942859  .00008143  00000+0  30008-3 0  9990
2 41844  97.3944  93.4699 0011927 233.1477 214.3201 15.28012623298233
LISHUI 1-01             
1 41845U 16066E   22080.85500024  .00009197  00000+0  10497-2 0  9995
2 41845  98.7272 205.5943 0233112 343.4611  15.9078 14.68653908283958
CAS-2T & KS-1Q          
1 41847U 16066G   22080.77269465  .00000675  00000+0  11000-3 0  9993
2 41847  98.5609 145.5069 0365460 112.0526 251.9896 14.38425862281749
RAVAN                   
1 41849U 16067B   22080.87980957  .00001765  00000+0  14697-3 0  9999
2 41849  97.9926 215.4252 0012451 263.7434  96.2370 14.99984842292865
CELTEE 1                
1 41850U 16067C   22080.88986618  .00001510  00000+0  13319-3 0  9990
2 41850  97.9817 210.8362 0007708 265.6754  94.3587 14.97976319292645
OPTICUBE 04             
1 41851U 16067D   22080.90196280  .00001536  00000+0  13720-3 0  9996
2 41851  97.9812 210.0039 0007183 270.5531  89.4867 14.97462252292607
AEROCUBE 8D             
1 41852U 16067E   22080.87162229  .00001180  00000+0  10565-3 0  9998
2 41852  97.9797 209.9216 0008658 272.5516  87.4714 14.97810389292581
AEROCUBE 8C             
1 41853U 16067F   22080.85095725  .00001704  00000+0  15035-3 0  9992
2 41853  97.9807 209.7343 0008170 275.0389  84.9900 14.97788209292571
PROMETHEUS 2-1          
1 41854U 16067G   22080.87805192  .00002431  00000+0  20782-3 0  9995
2 41854  97.9795 210.6786 0009795 269.4300  90.5800 14.98600498292626
PROMETHEUS 2-3          
1 41855U 16067H   22080.87200833  .00002161  00000+0  18519-3 0  9992
2 41855  97.9804 210.7447 0009819 272.0651  87.9447 14.98626179292620
YUNHAI 1                
1 41857U 16068A   22080.87884888  .00000253  00000+0  10933-3 0  9995
2 41857  98.5839  83.8719 0014874 245.1995 114.7639 14.32665273280093
GSAT0207 (GALILEO 15)   
1 41859U 16069A   22080.75273630  .00000033  00000+0  00000+0 0  9998
2 41859  54.7863 144.0152 0004729 287.9287  72.1055  1.70473546 33007
GSAT0212 (GALILEO 16)   
1 41860U 16069B   22080.01956939  .00000036  00000+0  00000+0 0  9992
2 41860  54.7838 144.0333 0003180 307.7738  52.2861  1.70473567 33247
GSAT0213 (GALILEO 17)   
1 41861U 16069C   22079.79845460  .00000037  00000+0  00000+0 0  9993
2 41861  54.7860 144.0446 0004561 267.2924  92.7447  1.70473626 33109
GSAT0214 (GALILEO 18)   
1 41862U 16069D   22078.18578513  .00000037  00000+0  00000+0 0  9998
2 41862  54.7840 144.0840 0003585 269.4181  90.6307  1.70473730 33209
GOES 16                 
1 41866U 16071A   22080.58668816 -.00000249  00000+0  00000+0 0  9994
2 41866   0.0738 290.4782 0001065 112.1250 272.4478  1.00273009 19580
TIANLIAN 1-04           
1 41869U 16072A   22080.85221781  .00000029  00000+0  00000+0 0  9999
2 41869   0.1537 276.1444 0021930 195.2480 191.5522  1.00269215 19807
LEMUR-2-XIAOQING        
1 41871U 16062C   22080.64833262  .00013786  00000+0  43351-3 0  9995
2 41871  51.6381  57.7216 0005095  11.2031 348.9063 15.33231107296468
LEMUR-2-SOKOLSKY        
1 41872U 16062D   22080.67892759  .00012099  00000+0  38267-3 0  9991
2 41872  51.6811  66.8581 0003828  85.5491 274.5929 15.33174871296435
LEMUR-2-ANUBHAVTHAKUR   
1 41873U 16062E   22080.59938823  .00004872  00000+0  19869-3 0  9993
2 41873  51.6790 100.6242 0008178 332.6486  27.4062 15.26202358295915
LEMUR-2-WINGO           
1 41874U 16062F   22080.75394788  .00013143  00000+0  42474-3 0  9997
2 41874  51.6509  66.4786 0008472 269.7172  90.2839 15.32379630296360
GOKTURK 1A              
1 41875U 16073A   22080.85530195  .00000243  00000+0  56857-4 0  9993
2 41875  98.1430 337.0016 0001418  78.8641 281.2716 14.62765456282476
RESOURCESAT-2A          
1 41877U 16074A   22080.75845905  .00000068  00000+0  51207-4 0  9992
2 41877  98.7240 157.0470 0001256 164.9872 195.1343 14.21624585274304
WGS F8 (USA 272)        
1 41879U 16075A   22080.49531751 -.00000203  00000+0  00000+0 0  9999
2 41879   0.0127 143.3736 0000300 232.3640 131.3482  1.00270977 19309
FENGYUN 4A              
1 41882U 16077A   22080.90964091 -.00000330  00000+0  00000+0 0  9999
2 41882   0.2018  88.2030 0005259 347.6121 175.5922  1.00265634 19459
CYGFM05                 
1 41884U 16078A   22080.92375024  .00002150  00000+0  11168-3 0  9998
2 41884  34.9571  26.7419 0014681  23.4726 336.6653 15.15735928291492
CYGFM04                 
1 41885U 16078B   22080.87436634  .00002396  00000+0  12250-3 0  9993
2 41885  34.9504  16.7672 0012896  39.2413 320.9232 15.16252694291521
CYGFM02                 
1 41886U 16078C   22080.86679990  .00002471  00000+0  12620-3 0  9992
2 41886  34.9596  18.9850 0013703  33.2055 326.9515 15.16270956291609
CYGFM01                 
1 41887U 16078D   22080.91330596  .00002276  00000+0  11885-3 0  9990
2 41887  34.9539  29.0407 0015119  22.9907 337.1479 15.15511669291445
CYGFM08                 
1 41888U 16078E   22080.92426373  .00002243  00000+0  11572-3 0  9998
2 41888  34.9509  22.0271 0014217  34.3448 325.8181 15.15946699291573
CYGFM06                 
1 41889U 16078F   22080.91370612  .00002281  00000+0  11662-3 0  9994
2 41889  34.9591  17.3883 0012668  33.2574 326.8932 15.16284064291552
CYGFM07                 
1 41890U 16078G   22080.89484521  .00002146  00000+0  10995-3 0  9996
2 41890  34.9529  16.3370 0012363  37.7788 322.3789 15.16239972291530
CYGFM03                 
1 41891U 16078H   22080.89309144  .00002137  00000+0  10955-3 0  9990
2 41891  34.9561  16.7929 0011879  35.4680 324.6819 15.16234222291529
ECHOSTAR 19             
1 41893U 16079A   22080.19072351 -.00000139  00000+0  00000+0 0  9990
2 41893   0.0185 147.6525 0001987 220.3341 142.2610  1.00271701 19208
ARASE (ERG)             
1 41896U 16080A   22080.61217706  .00000305  00000+0  71698-3 0  9996
2 41896  31.5937 260.5889 7018156 186.5714 153.6516  2.54030329 48643
TANSAT                  
1 41898U 16081A   22080.84816691  .00000503  00000+0  12207-3 0  9993
2 41898  98.3619  32.5103 0022609  52.6911 307.6345 14.57040581278948
YIJIAN                  
1 41899U 16081B   22080.88333243  .00000429  00000+0  10639-3 0  9999
2 41899  98.3544  31.0092 0023443  54.0581 306.2792 14.56687093278892
SPARK 1                 
1 41900U 16081C   22080.80790708  .00000453  00000+0  11381-3 0  9999
2 41900  98.3564  29.0291 0026525  56.4532 303.9174 14.55722270278705
SPARK 2                 
1 41901U 16081D   22080.83430973  .00000241  00000+0  66135-4 0  9991
2 41901  98.3503  27.0805 0028020  58.1684 302.2235 14.55376236278647
JCSAT-110A (JCSAT-15)   
1 41903U 16082A   22080.40829583 -.00000351  00000+0  00000+0 0  9993
2 41903   0.0180 162.9939 0001384 213.0102  59.9319  1.00271932 19227
STAR ONE D1             
1 41904U 16082B   22080.58485657 -.00000210  00000+0  00000+0 0  9997
2 41904   0.0219 148.6446 0001691 207.9519 309.0390  1.00264912 19240
SUPERVIEW-1 01          
1 41907U 16083A   22080.79425603  .00003660  00000+0  19015-3 0  9990
2 41907  97.4844 168.7418 0014984 164.0025 349.0324 15.16625880289059
SUPERVIEW-1 02          
1 41908U 16083B   22080.77713336  .00003263  00000+0  17039-3 0  9995
2 41908  97.3790 151.5791 0014191 157.2305 350.6484 15.16519879289053
TJS-2                   
1 41911U 17001A   22080.89518913 -.00000007  00000+0  00000+0 0  9997
2 41911   0.1488  83.3841 0003708  85.0763  39.6314  1.00270583 19207
XINGYUN SHIYAN-1        
1 41913U 17002A   22080.94445895  .00005876  00000+0  32043-3 0  9998
2 41913  97.3103 131.5798 0011119 200.7738 283.1236 15.14684986286651
JILIN-1-03              
1 41914U 17002B   22080.94002493  .00001729  00000+0  10760-3 0  9997
2 41914  97.3038 126.1569 0010614 221.5816 260.7806 15.10828972286354
KAIDUN 1                
1 41915U 17002C   22080.95245578  .00002711  00000+0  15664-3 0  9992
2 41915  97.3080 131.3052 0008624 215.1567 268.5025 15.13081082286655
IRIDIUM 106             
1 41917U 17003A   22080.86228864  .00000186  00000+0  59312-4 0  9997
2 41917  86.4027  15.5304 0001999  76.4970 283.6448 14.34215002271287
IRIDIUM 103             
1 41918U 17003B   22080.84961312  .00000164  00000+0  51452-4 0  9991
2 41918  86.4027  15.4407 0002481  83.6806 276.4672 14.34218237271301
